{
  "norad_id": 55818,
  "name": "ONEWEB-0657",
  "history": [
    {
      "epoch": "2026-03-28T22:25:51.865248Z",
      "apogee_km": 1186.9668421130455,
      "perigee_km": 1184.5621265531454,
      "latitude_deg": -5.813720646867411e-06,
      "longitude_deg": 158.16084718799183,
      "height_km": 1188.0066337618814,
      "semi_major_axis_km": 7563.901484333095,
      "eccentricity": 0.00015896,
      "inclination_deg": 87.9199,
      "raan_deg": 320.9749,
      "arg_perigee_deg": 56.8685,
      "mean_anomaly_deg": 303.26,
      "mean_motion_rev_day": 13.19726588
    },
    {
      "epoch": "2026-03-29T03:53:23.526240Z",
      "apogee_km": 1186.954720589919,
      "perigee_km": 1184.5690668788357,
      "latitude_deg": -1.7005086975342334e-05,
      "longitude_deg": 76.00964130729693,
      "height_km": 1188.0440053237235,
      "semi_major_axis_km": 7563.898893734377,
      "eccentricity": 0.0001577,
      "inclination_deg": 87.9197,
      "raan_deg": 320.9298,
      "arg_perigee_deg": 58.8414,
      "mean_anomaly_deg": 301.2873,
      "mean_motion_rev_day": 13.19727266
    },
    {
      "epoch": "2026-03-30T01:43:30.367200Z",
      "apogee_km": 1186.9369254514168,
      "perigee_km": 1184.5946873083922,
      "latitude_deg": 1.0740984710218789e-05,
      "longitude_deg": 107.40339763922809,
      "height_km": 1188.065058084971,
      "semi_major_axis_km": 7563.902806379904,
      "eccentricity": 0.00015483,
      "inclination_deg": 87.9197,
      "raan_deg": 320.7488,
      "arg_perigee_deg": 59.1768,
      "mean_anomaly_deg": 300.9517,
      "mean_motion_rev_day": 13.19726242
    },
    {
      "epoch": "2026-03-30T09:00:12.615264Z",
      "apogee_km": 1186.9248606039046,
      "perigee_km": 1184.6022892933606,
      "latitude_deg": 4.917423457594458e-05,
      "longitude_deg": -2.131947579793016,
      "height_km": 1188.0667272864164,
      "semi_major_axis_km": 7563.900574948632,
      "eccentricity": 0.00015353,
      "inclination_deg": 87.9196,
      "raan_deg": 320.6884,
      "arg_perigee_deg": 59.1105,
      "mean_anomaly_deg": 301.0179,
      "mean_motion_rev_day": 13.19726826
    },
    {
      "epoch": "2026-03-30T21:44:26.596032Z",
      "apogee_km": 1186.9047224475134,
      "perigee_km": 1184.623298624716,
      "latitude_deg": -5.654062737428564e-05,
      "longitude_deg": 166.18109710300428,
      "height_km": 1188.0747548989912,
      "semi_major_axis_km": 7563.901010536114,
      "eccentricity": 0.00015081,
      "inclination_deg": 87.9195,
      "raan_deg": 320.5828,
      "arg_perigee_deg": 58.933,
      "mean_anomaly_deg": 301.195,
      "mean_motion_rev_day": 13.19726712
    },
    {
      "epoch": "2026-03-31T21:23:43.884096Z",
      "apogee_km": 1186.871513613306,
      "perigee_km": 1184.6507531213492,
      "latitude_deg": -5.972330048462687e-05,
      "longitude_deg": 170.19149653972468,
      "height_km": 1188.0871915253065,
      "semi_major_axis_km": 7563.898133367327,
      "eccentricity": 0.0001468,
      "inclination_deg": 87.9193,
      "raan_deg": 320.3867,
      "arg_perigee_deg": 58.9089,
      "mean_anomaly_deg": 301.2187,
      "mean_motion_rev_day": 13.19727465
    },
    {
      "epoch": "2026-04-01T04:40:26.147712Z",
      "apogee_km": 1186.86404327954,
      "perigee_km": 1184.6602256277265,
      "latitude_deg": 4.038193140408793e-05,
      "longitude_deg": 60.65608861470432,
      "height_km": 1188.0936849356863,
      "semi_major_axis_km": 7563.899134453633,
      "eccentricity": 0.00014568,
      "inclination_deg": 87.9193,
      "raan_deg": 320.3263,
      "arg_perigee_deg": 58.9767,
      "mean_anomaly_deg": 301.1509,
      "mean_motion_rev_day": 13.19727203
    },
    {
      "epoch": "2026-04-02T20:42:18.418752Z",
      "apogee_km": 1186.7949551222127,
      "perigee_km": 1184.720632613943,
      "latitude_deg": 5.897600698444471e-06,
      "longitude_deg": 178.21197055580947,
      "height_km": 1188.1423547641123,
      "semi_major_axis_km": 7563.894793868078,
      "eccentricity": 0.00013712,
      "inclination_deg": 87.9191,
      "raan_deg": 319.994,
      "arg_perigee_deg": 60.2274,
      "mean_anomaly_deg": 299.8995,
      "mean_motion_rev_day": 13.19728339
    },
    {
      "epoch": "2026-04-03T16:43:14.650176Z",
      "apogee_km": 1186.7843838279887,
      "perigee_km": 1184.7391056074175,
      "latitude_deg": 3.164887404967066e-05,
      "longitude_deg": -123.01063836755661,
      "height_km": 1188.2248789040177,
      "semi_major_axis_km": 7563.898744717703,
      "eccentricity": 0.0001352,
      "inclination_deg": 87.9189,
      "raan_deg": 319.8277,
      "arg_perigee_deg": 64.7397,
      "mean_anomaly_deg": 295.3876,
      "mean_motion_rev_day": 13.19727305
    },
    {
      "epoch": "2026-04-04T16:22:31.930464Z",
      "apogee_km": 1186.7654779025752,
      "perigee_km": 1184.7580191747138,
      "latitude_deg": -2.8146238105061812e-05,
      "longitude_deg": -119.00021052054107,
      "height_km": 1188.2355682112864,
      "semi_major_axis_km": 7563.898748538644,
      "eccentricity": 0.0001327,
      "inclination_deg": 87.9185,
      "raan_deg": 319.6316,
      "arg_perigee_deg": 64.902,
      "mean_anomaly_deg": 295.225,
      "mean_motion_rev_day": 13.19727304
    },
    {
      "epoch": "2026-04-05T12:23:28.113504Z",
      "apogee_km": 1186.779421178294,
      "perigee_km": 1184.7424634624276,
      "latitude_deg": 1.68881289559798e-05,
      "longitude_deg": -60.22201786458807,
      "height_km": 1188.195376547747,
      "semi_major_axis_km": 7563.897942320361,
      "eccentricity": 0.00013465,
      "inclination_deg": 87.9182,
      "raan_deg": 319.4659,
      "arg_perigee_deg": 62.8265,
      "mean_anomaly_deg": 297.3005,
      "mean_motion_rev_day": 13.19727515
    },
    {
      "epoch": "2026-04-05T21:29:20.903712Z",
      "apogee_km": 1186.7694353815432,
      "perigee_km": 1184.7529001300209,
      "latitude_deg": -6.700380143577996e-05,
      "longitude_deg": 162.85897775089055,
      "height_km": 1188.2029922432064,
      "semi_major_axis_km": 7563.898167755782,
      "eccentricity": 0.0001333,
      "inclination_deg": 87.9182,
      "raan_deg": 319.3905,
      "arg_perigee_deg": 62.9986,
      "mean_anomaly_deg": 297.1282,
      "mean_motion_rev_day": 13.19727456
    },
    {
      "epoch": "2026-04-06T01:07:42.056256Z",
      "apogee_km": 1186.7617487916768,
      "perigee_km": 1184.7624589805382,
      "latitude_deg": 3.068290840741418e-05,
      "longitude_deg": 108.09118837529086,
      "height_km": 1188.2103245487485,
      "semi_major_axis_km": 7563.899103886108,
      "eccentricity": 0.00013216,
      "inclination_deg": 87.9181,
      "raan_deg": 319.3603,
      "arg_perigee_deg": 63.1581,
      "mean_anomaly_deg": 296.9687,
      "mean_motion_rev_day": 13.19727211
    },
    {
      "epoch": "2026-04-07T08:03:41.555232Z",
      "apogee_km": 1186.7197298032188,
      "perigee_km": 1184.7975926377885,
      "latitude_deg": 3.3014569785128604e-05,
      "longitude_deg": 2.5661915670228463,
      "height_km": 1188.2401494260112,
      "semi_major_axis_km": 7563.895661220503,
      "eccentricity": 0.00012706,
      "inclination_deg": 87.918,
      "raan_deg": 319.1036,
      "arg_perigee_deg": 64.2079,
      "mean_anomaly_deg": 295.9185,
      "mean_motion_rev_day": 13.19728112
    },
    {
      "epoch": "2026-04-08T07:42:58.838112Z",
      "apogee_km": 1186.6877715334876,
      "perigee_km": 1184.8315912878697,
      "latitude_deg": 1.5709742864433004e-05,
      "longitude_deg": 6.576407851938914,
      "height_km": 1188.2647935368943,
      "semi_major_axis_km": 7563.896681410679,
      "eccentricity": 0.0001227,
      "inclination_deg": 87.9176,
      "raan_deg": 318.9073,
      "arg_perigee_deg": 64.8381,
      "mean_anomaly_deg": 295.2879,
      "mean_motion_rev_day": 13.19727845
    },
    {
      "epoch": "2026-04-09T12:49:47.813952Z",
      "apogee_km": 1186.68381404897,
      "perigee_km": 1184.8367103375413,
      "latitude_deg": -2.298607572036549e-05,
      "longitude_deg": -71.56491644516363,
      "height_km": 1188.2967215947897,
      "semi_major_axis_km": 7563.897262193255,
      "eccentricity": 0.0001221,
      "inclination_deg": 87.9173,
      "raan_deg": 318.6657,
      "arg_perigee_deg": 66.8392,
      "mean_anomaly_deg": 293.2869,
      "mean_motion_rev_day": 13.19727693
    },
    {
      "epoch": "2026-04-10T03:23:12.462144Z",
      "apogee_km": 1186.6604353912035,
      "perigee_km": 1184.8735387133029,
      "latitude_deg": 1.1146421765374104e-05,
      "longitude_deg": 69.36375384753819,
      "height_km": 1188.3130727014272,
      "semi_major_axis_km": 7563.903987052253,
      "eccentricity": 0.00011812,
      "inclination_deg": 87.9171,
      "raan_deg": 318.5449,
      "arg_perigee_deg": 66.6808,
      "mean_anomaly_deg": 293.4449,
      "mean_motion_rev_day": 13.19725933
    },
    {
      "epoch": "2026-04-11T21:14:15.829152Z",
      "apogee_km": 1186.6767564638621,
      "perigee_km": 1184.8795702210518,
      "latitude_deg": 1.4968742997539444e-05,
      "longitude_deg": 159.53346452107843,
      "height_km": 1188.3764974179494,
      "semi_major_axis_km": 7563.915163342456,
      "eccentricity": 0.0001188,
      "inclination_deg": 87.9173,
      "raan_deg": 318.1974,
      "arg_perigee_deg": 70.404,
      "mean_anomaly_deg": 289.7221,
      "mean_motion_rev_day": 13.19723008
    },
    {
      "epoch": "2026-04-13T00:31:54.548832Z",
      "apogee_km": 1186.6491260853827,
      "perigee_km": 1184.9029211247544,
      "latitude_deg": -3.6454724000717e-05,
      "longitude_deg": 108.77460158772382,
      "height_km": 1188.4050604333409,
      "semi_major_axis_km": 7563.913023605069,
      "eccentricity": 0.00011543,
      "inclination_deg": 87.9172,
      "raan_deg": 317.9708,
      "arg_perigee_deg": 71.9366,
      "mean_anomaly_deg": 288.1892,
      "mean_motion_rev_day": 13.19723568
    }
  ]
}